[{"OBJECT_NAME":"STARLINK-1680","OBJECT_ID":"2020-070AC","EPOCH":"2026-03-10T00:00:02.999808","MEAN_MOTION":15.76401356,"ECCENTRICITY":0.00075058,"INCLINATION":53.0447,"RA_OF_ASC_NODE":107.962,"ARG_OF_PERICENTER":15.0582,"MEAN_ANOMALY":219.3714,"EPHEMERIS_TYPE":0,"CLASSIFICATION_TYPE":"U","NORAD_CAT_ID":46558,"ELEMENT_SET_NO":999,"REV_AT_EPOCH":596,"BSTAR":0.0012210481,"MEAN_MOTION_DOT":0.00201352,"MEAN_MOTION_DDOT":0},{"OBJECT_NAME":"STARLINK-36384","OBJECT_ID":"2026-018J","EPOCH":"2026-03-09T16:52:32.999808","MEAN_MOTION":15.75299158,"ECCENTRICITY":0.00017083,"INCLINATION":97.2829,"RA_OF_ASC_NODE":134.5705,"ARG_OF_PERICENTER":57.1797,"MEAN_ANOMALY":302.9633,"EPHEMERIS_TYPE":0,"CLASSIFICATION_TYPE":"U","NORAD_CAT_ID":67597,"ELEMENT_SET_NO":999,"REV_AT_EPOCH":731,"BSTAR":0.0017015306,"MEAN_MOTION_DOT":0.00262872,"MEAN_MOTION_DDOT":0}]
